{
    "links": {
        "self": "http://www.neowsapp.com/rest/v1/neo/54055026?api_key=iIulBulltgU6a56xZRHN4H3l9WmuAYTsLGpBGhQ2"
    },
    "id": "54055026",
    "neo_reference_id": "54055026",
    "name": "(2020 TT)",
    "designation": "2020 TT",
    "nasa_jpl_url": "http://ssd.jpl.nasa.gov/sbdb.cgi?sstr=54055026",
    "absolute_magnitude_h": 21.756,
    "estimated_diameter": {
        "kilometers": {
            "estimated_diameter_min": 0.1184008926,
            "estimated_diameter_max": 0.2647524445
        },
        "meters": {
            "estimated_diameter_min": 118.4008926411,
            "estimated_diameter_max": 264.7524445421
        },
        "miles": {
            "estimated_diameter_min": 0.0735708811,
            "estimated_diameter_max": 0.1645094912
        },
        "feet": {
            "estimated_diameter_min": 388.4543846125,
            "estimated_diameter_max": 868.6104101514
        }
    },
    "is_potentially_hazardous_asteroid": true,
    "close_approach_data": [
        {
            "close_approach_date": "2020-09-16",
            "close_approach_date_full": "2020-Sep-16 19:30",
            "epoch_date_close_approach": 1600284600000,
            "relative_velocity": {
                "kilometers_per_second": "27.6514547794",
                "kilometers_per_hour": "99545.2372059682",
                "miles_per_hour": "61853.5391961195"
            },
            "miss_distance": {
                "astronomical": "0.1937209084",
                "lunar": "75.3574333676",
                "kilometers": "28980235.271105108",
                "miles": "18007483.1793741704"
            },
            "orbiting_body": "Earth"
        }
    ],
    "orbital_data": {
        "orbit_id": "5",
        "orbit_determination_date": "2020-10-14 07:42:52",
        "first_observation_date": "2020-10-06",
        "last_observation_date": "2020-10-13",
        "data_arc_in_days": 7,
        "observations_used": 33,
        "orbit_uncertainty": "9",
        "minimum_orbit_intersection": ".0362742",
        "jupiter_tisserand_invariant": "3.745",
        "epoch_osculation": "2459129.5",
        "eccentricity": ".6983359090001247",
        "semi_major_axis": "1.788038984051556",
        "inclination": "5.890610390960271",
        "ascending_node_longitude": "311.0076295190947",
        "orbital_period": "873.3008882623805",
        "perihelion_distance": ".5393871547962533",
        "perihelion_argument": "297.1124807631908",
        "aphelion_distance": "3.036690813306859",
        "perihelion_time": "2459062.701006765523",
        "mean_anomaly": "27.53648586372064",
        "mean_motion": ".4122290551155825",
        "equinox": "J2000",
        "orbit_class": {
            "orbit_class_type": "APO",
            "orbit_class_description": "Near-Earth asteroid orbits which cross the Earth’s orbit similar to that of 1862 Apollo",
            "orbit_class_range": "a (semi-major axis) > 1.0 AU; q (perihelion) < 1.017 AU"
        }
    },
    "is_sentry_object": false
}